0 DMSP 5D-2 F11 DEB
1 29075U 91082BW  13281.85194140  .00010044  00000-0  30338-2 0  8470
2 29075 098.6173 298.8601 0045326 306.8214 052.8821 14.42005173431233
0 DMSP 5D-2 F11 DEB
1 29075U 91082BW  13282.82335683  .00012524  00000-0  37752-2 0  8480
2 29075 098.6176 299.8408 0045355 303.7569 055.9303 14.42040690431370
0 DMSP 5D-2 F11 DEB
1 29075U 91082BW  13285.80689160  .00011539  00000-0  34756-2 0  8502
2 29075 098.6172 302.8529 0045424 294.3533 065.2917 14.42099664431806
0 DMSP 5D-2 F11 DEB
1 29075U 91082BW  13286.98639452  .00011082  00000-0  33370-2 0  8516
2 29075 098.6171 304.0438 0045482 290.7956 068.8364 14.42124113431972
0 DMSP 5D-2 F11 DEB
1 29075U 91082BW  13288.30463460  .00018577  00000-0  55734-2 0  8523
2 29075 098.6162 305.3754 0045522 286.6000 073.0193 14.42162449432160
0 DMSP 5D-2 F11 DEB
1 29075U 91082BW  13289.83097344  .00015167  00000-0  45515-2 0  8535
2 29075 098.6160 306.9159 0045633 281.9409 077.6666 14.42201535432387
0 DMSP 5D-2 F11 DEB
1 29075U 91082BW  13291.49602626  .00014339  00000-0  43002-2 0  8545
2 29075 098.6154 308.5976 0045719 276.7666 082.8322 14.42245736432622
0 DMSP 5D-2 F11 DEB
1 29075U 91082BW  13292.81415794  .00014309  00000-0  42882-2 0  8553
2 29075 098.6153 309.9284 0045784 272.6968 086.8981 14.42276274432817
0 DMSP 5D-2 F11 DEB
1 29075U 91082BW  13293.85476893  .00014549  00000-0  43574-2 0  8561
2 29075 098.6152 310.9788 0045855 269.4522 090.1412 14.42300371432965
0 DMSP 5D-2 F11 DEB
1 29075U 91082BW  13295.24222344  .00016831  00000-0  50334-2 0  8575
2 29075 098.6155 312.3797 0045976 265.2244 094.3694 14.42332169433164
